BADR-5                  
1 36592U 10025A   26195.62961729  .00000146  00000+0  00000+0 0  9997
2 36592   0.0490 117.5467 0005123  78.7094 353.3482  1.00270174 53498
COMS 1                  
1 36744U 10032A   26195.45878229 -.00000258  00000+0  00000+0 0  9992
2 36744   4.8730  75.0265 0011267  14.7056 332.7369  0.99168113 51358
ARABSAT-5A              
1 36745U 10032B   26195.65732509  .00000145  00000+0  00000+0 0  9999
2 36745   0.1098  66.2616 0005728  56.3901  76.9986  1.00273944 58927
ECHOSTAR 15             
1 36792U 10034A   26195.53553365 -.00000008  00000+0  00000+0 0  9990
2 36792   0.0496 265.5598 0001813 187.6029 273.2053  1.00271748 58593
BEIDOU-2 IGSO-1         
1 36828U 10036A   26193.88960631 -.00000103  00000+0  00000+0 0  9992
2 36828  54.3059 162.7278 0059161 225.3005 330.1612  1.00264571 58350
NILESAT 201             
1 36830U 10037A   26194.47961264 -.00000061  00000+0  00000+0 0  9998
2 36830   0.0241 122.3173 0005477  16.5206 318.1955  1.00271853 58643
RASCOM-QAF 1R           
1 36831U 10037B   26195.55962709  .00000011  00000+0  00000+0 0  9998
2 36831   0.0330  85.5241 0006410  18.2169  33.0442  1.00273111 58580
AEHF-1 (USA 214)        
1 36868U 10039A   26195.27985612  .00000135  00000+0  00000+0 0  9994
2 36868   8.2856  67.6919 0003705  37.6135 317.5337  1.00274037 53922
XM-5                    
1 37185U 10053A   26194.27598828 -.00000026  00000+0  00000+0 0  9991
2 37185   0.0648 265.0318 0001728 322.3275  47.9546  1.00270903 57741
BSAT-3B                 
1 37207U 10056B   26195.59540395 -.00000358  00000+0  00000+0 0  9999
2 37207   0.0785 246.2490 0002621 296.3442  74.0402  1.00271424 52374
BEIDOU-2 G4             
1 37210U 10057A   26195.59073336 -.00000124  00000+0  00000+0 0  9991
2 37210   3.7120  68.7678 0005724 184.5509  51.7159  1.00269764 57566
SKYTERRA 1              
1 37218U 10061A   26195.53900032 -.00000128  00000+0  00000+0 0  9994
2 37218   5.1813  50.8076 0002534  24.9714 309.3325  1.00270219 57467
HYLAS 1                 
1 37237U 10065A   26195.20881608  .00000134  00000+0  00000+0 0  9996
2 37237   5.7097  72.6844 0001205 149.0595 176.5561  1.00640348  7154
INTELSAT 17 (IS-17)     
1 37238U 10065B   26195.57753130 -.00000009  00000+0  00000+0 0  9997
2 37238   0.0066 131.1725 0002648   2.9232  72.2427  1.00270588 53525
BEIDOU-2 IGSO-2         
1 37256U 10068A   26195.65157983 -.00000189  00000+0  00000+0 0  9992
2 37256  47.4976 271.4891 0056995 213.8254 150.0718  1.00273103 57071
EUTELSAT KA-SAT 9A      
1 37258U 10069A   26195.34695791  .00000055  00000+0  00000+0 0  9996
2 37258   0.0611 355.3692 0004449 149.8520 280.8843  1.00273015 44288
HISPASAT 30W-5          
1 37264U 10070A   26195.41053245 -.00000223  00000+0  00000+0 0  9993
2 37264   0.0275 111.5944 0005551  15.4366 283.0318  1.00270529 53452
KOREASAT 6              
1 37265U 10070B   26195.62366296 -.00000120  00000+0  00000+0 0  9996
2 37265   0.0181  39.7473 0002490  88.8266 188.3200  1.00270989 57045
BEIDOU-2 IGSO-3         
1 37384U 11013A   26193.51258941 -.00000165  00000+0  00000+0 0  9998
2 37384  62.4426  39.9128 0035266 183.3051 358.3524  1.00260977 55918
INTELSAT 28 (IS-28)     
1 37392U 11016A   26195.19633601 -.00000233  00000+0  00000+0 0  9992
2 37392   1.8738  82.2861 0003704  40.6955 208.0408  1.00271187 53550
YAHSAT 1A               
1 37393U 11016B   26195.42673919  .00000000  00000+0  00000+0 0  9996
2 37393   0.0273  65.8741 0003070  47.4743  25.0682  1.00269506 42681
SBIRS GEO-1 (USA 230)   
1 37481U 11019A   26195.20114307  .00000090  00000+0  00000+0 0  9993
2 37481   4.5943  53.0988 0001997  52.0479 311.1327  1.00272398 55679
TELSTAR 14R             
1 37602U 11021A   26195.54654037 -.00000288  00000+0  00000+0 0  9997
2 37602   0.0856  84.9749 0001599   1.1935 339.9946  1.00270342 56107
GSAT-8                  
1 37605U 11022A   26195.56994047  .00000075  00000+0  00000+0 0  9994
2 37605   2.1997  81.4886 0002724 164.8790 306.3270  1.00273023 53496
ST-2                    
1 37606U 11022B   26195.57644275 -.00000219  00000+0  00000+0 0  9992
2 37606   0.0171  51.5309 0001474  78.2295  98.2120  1.00271997 55553
ZHONGXING-10            
1 37677U 11026A   26195.64724647 -.00000196  00000+0  00000+0 0  9998
2 37677   1.1148  83.8701 0003225  25.0458 142.0548  1.00268134 55278
SES-3                   
1 37748U 11035A   26195.53865366 -.00000111  00000+0  00000+0 0  9996
2 37748   1.3951  82.7818 0001918  31.5414 269.0002  1.00271327 54866
KAZSAT-2                
1 37749U 11035B   26195.43358589 -.00000205  00000+0  00000+0 0  9994
2 37749   0.0267 113.0493 0001810  59.5380   2.2899  1.00272896 53674
BEIDOU-2 IGSO-4         
1 37763U 11038A   26193.91136250 -.00000017  00000+0  00000+0 0  9994
2 37763  54.6038 165.4445 0160342 231.4539 316.2369  1.00279714 54905
ASTRA 1N                
1 37775U 11041A   26195.56283377  .00000112  00000+0  00000+0 0  9992
2 37775   0.0607   7.5326 0005663 106.7690  39.9277  1.00270306 44808
BSAT-3C (JCSAT-110R)    
1 37776U 11041B   26195.59540777 -.00000358  00000+0  00000+0 0  9999
2 37776   0.0210 339.0030 0000260 243.2808  34.4687  1.00270422 50744
PAKSAT-1R               
1 37779U 11042A   26195.62961729  .00000145  00000+0  00000+0 0  9994
2 37779   0.7580  84.3361 0003066 350.1146 122.6834  1.00268216 54758
