OBJECT_NAME,OBJECT_ID,EPOCH,MEAN_MOTION,ECCENTRICITY,INCLINATION,RA_OF_ASC_NODE,ARG_OF_PERICENTER,MEAN_ANOMALY,EPHEMERIS_TYPE,CLASSIFICATION_TYPE,NORAD_CAT_ID,ELEMENT_SET_NO,REV_AT_EPOCH,BSTAR,MEAN_MOTION_DOT,MEAN_MOTION_DDOT
BADR-5,2010-025A,2026-07-14T15:06:38.933856,1.00270174,.0005123,0.0490,117.5467,78.7094,353.3482,0,U,36592,999,5349,0,.146E-5,0
COMS 1,2010-032A,2026-07-14T11:00:38.789856,0.99168113,.00112678,4.8730,75.0265,14.7056,332.7369,0,U,36744,999,5135,0,-.258E-5,0
ARABSAT-5A,2010-032B,2026-07-14T15:46:32.887776,1.00273944,.0005728,0.1098,66.2616,56.3901,76.9986,0,U,36745,999,5892,0,.145E-5,0
ECHOSTAR 15,2010-034A,2026-07-14T12:51:10.107360,1.00271748,.00018138,0.0496,265.5598,187.6029,273.2053,0,U,36792,999,5859,0,-.8E-7,0
BEIDOU-2 IGSO-1,2010-036A,2026-07-12T21:21:01.985184,1.00264571,.0059161,54.3059,162.7278,225.3005,330.1612,0,U,36828,999,5835,0,-.103E-5,0
NILESAT 201,2010-037A,2026-07-13T11:30:38.532096,1.00271853,.00054772,0.0241,122.3173,16.5206,318.1955,0,U,36830,999,5864,0,-.61E-6,0
RASCOM-QAF 1R,2010-037B,2026-07-14T13:25:51.780576,1.00273111,.00064108,0.0330,85.5241,18.2169,33.0442,0,U,36831,999,5858,0,.11E-6,0
AEHF-1 (USA 214),2010-039A,2026-07-14T06:42:59.568768,1.00274037,.00037052,8.2856,67.6919,37.6135,317.5337,0,U,36868,999,5392,0,.135E-5,0
XM-5,2010-053A,2026-07-13T06:37:25.387392,1.00270903,.0001728,0.0648,265.0318,322.3275,47.9546,0,U,37185,999,5774,0,-.26E-6,0
BSAT-3B,2010-056B,2026-07-14T14:17:22.901280,1.00271424,.00026217,0.0785,246.2490,296.3442,74.0402,0,U,37207,999,5237,0,-.358E-5,0
BEIDOU-2 G4,2010-057A,2026-07-14T14:10:39.362304,1.00269764,.00057246,3.7120,68.7678,184.5509,51.7159,0,U,37210,999,5756,0,-.124E-5,0
SKYTERRA 1,2010-061A,2026-07-14T12:56:09.627648,1.00270219,.00025343,5.1813,50.8076,24.9714,309.3325,0,U,37218,999,5746,0,-.128E-5,0
HYLAS 1,2010-065A,2026-07-14T05:00:41.709312,1.00640348,.00012057,5.7097,72.6844,149.0595,176.5561,0,U,37237,999,715,0,.134E-5,0
INTELSAT 17 (IS-17),2010-065B,2026-07-14T13:51:38.704320,1.00270588,.00026481,0.0066,131.1725,2.9232,72.2427,0,U,37238,999,5352,0,-.9E-7,0
BEIDOU-2 IGSO-2,2010-068A,2026-07-14T15:38:16.497312,1.00273103,.00569956,47.4976,271.4891,213.8254,150.0718,0,U,37256,999,5707,0,-.189E-5,0
EUTELSAT KA-SAT 9A,2010-069A,2026-07-14T08:19:37.163424,1.00273015,.00044495,0.0611,355.3692,149.8520,280.8843,0,U,37258,999,4428,0,.55E-6,0
HISPASAT 30W-5,2010-070A,2026-07-14T09:51:10.003680,1.00270529,.00055512,0.0275,111.5944,15.4366,283.0318,0,U,37264,999,5345,0,-.223E-5,0
KOREASAT 6,2010-070B,2026-07-14T14:58:04.479744,1.00270989,.00024906,0.0181,39.7473,88.8266,188.3200,0,U,37265,999,5704,0,-.12E-5,0
BEIDOU-2 IGSO-3,2011-013A,2026-07-12T12:18:07.725024,1.00260977,.0035266,62.4426,39.9128,183.3051,358.3524,0,U,37384,999,5591,0,-.165E-5,0
INTELSAT 28 (IS-28),2011-016A,2026-07-14T04:42:43.431264,1.00271187,.00037041,1.8738,82.2861,40.6955,208.0408,0,U,37392,999,5355,0,-.233E-5,0
YAHSAT 1A,2011-016B,2026-07-14T10:14:30.266016,1.00269506,.00030707,0.0273,65.8741,47.4743,25.0682,0,U,37393,999,4268,0,0,0
SBIRS GEO-1 (USA 230),2011-019A,2026-07-14T04:49:38.761248,1.00272398,.00019975,4.5943,53.0988,52.0479,311.1327,0,U,37481,999,5567,0,.9E-6,0
TELSTAR 14R,2011-021A,2026-07-14T13:07:01.087968,1.00270342,.00015998,0.0856,84.9749,1.1935,339.9946,0,U,37602,999,5610,0,-.288E-5,0
GSAT-8,2011-022A,2026-07-14T13:40:42.856608,1.00273023,.00027244,2.1997,81.4886,164.8790,306.3270,0,U,37605,999,5349,0,.75E-6,0
ST-2,2011-022B,2026-07-14T13:50:04.653600,1.00271997,.00014741,0.0171,51.5309,78.2295,98.2120,0,U,37606,999,5555,0,-.219E-5,0
ZHONGXING-10,2011-026A,2026-07-14T15:32:02.095008,1.00268134,.00032253,1.1148,83.8701,25.0458,142.0548,0,U,37677,999,5527,0,-.196E-5,0
SES-3,2011-035A,2026-07-14T12:55:39.676224,1.00271327,.00019181,1.3951,82.7818,31.5414,269.0002,0,U,37748,999,5486,0,-.111E-5,0
KAZSAT-2,2011-035B,2026-07-14T10:24:21.820896,1.00272896,.00018108,0.0267,113.0493,59.5380,2.2899,0,U,37749,999,5367,0,-.205E-5,0
BEIDOU-2 IGSO-4,2011-038A,2026-07-12T21:52:21.720000,1.00279714,.01603423,54.6038,165.4445,231.4539,316.2369,0,U,37763,999,5490,0,-.17E-6,0
ASTRA 1N,2011-041A,2026-07-14T13:30:28.837728,1.00270306,.00056634,0.0607,7.5326,106.7690,39.9277,0,U,37775,999,4480,0,.112E-5,0
BSAT-3C (JCSAT-110R),2011-041B,2026-07-14T14:17:23.231328,1.00270422,.00002601,0.0210,339.0030,243.2808,34.4687,0,U,37776,999,5074,0,-.358E-5,0
PAKSAT-1R,2011-042A,2026-07-14T15:06:38.933856,1.00268216,.00030667,0.7580,84.3361,350.1146,122.6834,0,U,37779,999,5475,0,.145E-5,0
